[{"CCSDS_OMM_VERS":"2.0","COMMENT":"GENERATED VIA SPACE-TRACK.ORG API","CREATION_DATE":"2021-08-03T20:26:14","ORIGINATOR":"18 SPCS","OBJECT_NAME":"TBA - TO BE ASSIGNED","OBJECT_ID":"","CENTER_NAME":"EARTH","REF_FRAME":"TEME","TIME_SYSTEM":"UTC","MEAN_ELEMENT_THEORY":"SGP4","EPOCH":"2021-08-04T14:44:15.000000","MEAN_MOTION":"1.03320077","ECCENTRICITY":"0.01860000","INCLINATION":"0.0400","RA_OF_ASC_NODE":"268.5800","ARG_OF_PERICENTER":"0.4400","MEAN_ANOMALY":"182.7400","EPHEMERIS_TYPE":"0","CLASSIFICATION_TYPE":"U","NORAD_CAT_ID":"85416","ELEMENT_SET_NO":"999","REV_AT_EPOCH":"1","BSTAR":"0.00000000000000","MEAN_MOTION_DOT":"-0.00000217","MEAN_MOTION_DDOT":"0.0000000000000","SEMIMAJOR_AXIS":"41331.265","PERIOD":"1393.727","APOAPSIS":"35721.891","PERIAPSIS":"34184.368","OBJECT_TYPE":"TBA","RCS_SIZE":null,"COUNTRY_CODE":null,"LAUNCH_DATE":null,"SITE":null,"DECAY_DATE":null,"FILE":"3088803","GP_ID":"182022677","TLE_LINE0":"0 TBA - TO BE ASSIGNED","TLE_LINE1":"1 85416U          21216.61406250 -.00000217  00000-0  00000+0 0  9990","TLE_LINE2":"2 85416   0.0400 268.5800 0186000   0.4400 182.7400  1.03320077    18"},{"CCSDS_OMM_VERS":"2.0","COMMENT":"GENERATED VIA SPACE-TRACK.ORG API","CREATION_DATE":"2021-08-03T06:26:11","ORIGINATOR":"18 SPCS","OBJECT_NAME":"TBA - TO BE ASSIGNED","OBJECT_ID":"","CENTER_NAME":"EARTH","REF_FRAME":"TEME","TIME_SYSTEM":"UTC","MEAN_ELEMENT_THEORY":"SGP4","EPOCH":"2021-08-01T05:00:14.740416","MEAN_MOTION":"2.03969522","ECCENTRICITY":"0.60245120","INCLINATION":"1.8548","RA_OF_ASC_NODE":"92.3418","ARG_OF_PERICENTER":"178.2777","MEAN_ANOMALY":"344.7695","EPHEMERIS_TYPE":"0","CLASSIFICATION_TYPE":"U","NORAD_CAT_ID":"85415","ELEMENT_SET_NO":"999","REV_AT_EPOCH":"3","BSTAR":"0.00000000000000","MEAN_MOTION_DOT":"-0.00000077","MEAN_MOTION_DDOT":"0.0000000000000","SEMIMAJOR_AXIS":"26263.846","PERIOD":"705.988","APOAPSIS":"35708.396","PERIAPSIS":"4063.025","OBJECT_TYPE":"TBA","RCS_SIZE":null,"COUNTRY_CODE":null,"LAUNCH_DATE":null,"SITE":null,"DECAY_DATE":null,"FILE":"3088411","GP_ID":"182014102","TLE_LINE0":"0 TBA - TO BE ASSIGNED","TLE_LINE1":"1 85415U          21213.20850394 -.00000077  00000-0  00000+0 0  9997","TLE_LINE2":"2 85415   1.8548  92.3418 6024512 178.2777 344.7695  2.03969522    36"},{"CCSDS_OMM_VERS":"2.0","COMMENT":"GENERATED VIA SPACE-TRACK.ORG API","CREATION_DATE":"2021-08-02T22:56:11","ORIGINATOR":"18 SPCS","OBJECT_NAME":"TBA - TO BE ASSIGNED","OBJECT_ID":"","CENTER_NAME":"EARTH","REF_FRAME":"TEME","TIME_SYSTEM":"UTC","MEAN_ELEMENT_THEORY":"SGP4","EPOCH":"2021-08-03T03:08:27.003840","MEAN_MOTION":"1.34837435","ECCENTRICITY":"0.21641000","INCLINATION":"0.3600","RA_OF_ASC_NODE":"92.0300","ARG_OF_PERICENTER":"178.7200","MEAN_ANOMALY":"181.4500","EPHEMERIS_TYPE":"0","CLASSIFICATION_TYPE":"U","NORAD_CAT_ID":"85414","ELEMENT_SET_NO":"999","REV_AT_EPOCH":"1","BSTAR":"0.00000000000000","MEAN_MOTION_DOT":"-0.00000108","MEAN_MOTION_DDOT":"0.0000000000000","SEMIMAJOR_AXIS":"34609.462","PERIOD":"1067.953","APOAPSIS":"35721.161","PERIAPSIS":"20741.494","OBJECT_TYPE":"TBA","RCS_SIZE":null,"COUNTRY_CODE":null,"LAUNCH_DATE":null,"SITE":null,"DECAY_DATE":null,"FILE":"3088365","GP_ID":"181990386","TLE_LINE0":"0 TBA - TO BE ASSIGNED","TLE_LINE1":"1 85414U          21215.13086810 -.00000108  00000-0  00000+0 0  9999","TLE_LINE2":"2 85414   0.3600  92.0300 2164100 178.7200 181.4500  1.34837435    14"},{"CCSDS_OMM_VERS":"2.0","COMMENT":"GENERATED VIA SPACE-TRACK.ORG API","CREATION_DATE":"2020-01-16T03:20:12","ORIGINATOR":"18 SPCS","OBJECT_NAME":"TBA - TO BE ASSIGNED","OBJECT_ID":null,"CENTER_NAME":"EARTH","REF_FRAME":"TEME","TIME_SYSTEM":"UTC","MEAN_ELEMENT_THEORY":"SGP4","EPOCH":"2020-01-16T08:19:43.380768","MEAN_MOTION":"13.55759361","ECCENTRICITY":"0.00101300","INCLINATION":"88.9100","RA_OF_ASC_NODE":"82.4227","ARG_OF_PERICENTER":"287.1400","MEAN_ANOMALY":"204.5700","EPHEMERIS_TYPE":"0","CLASSIFICATION_TYPE":"U","NORAD_CAT_ID":"85412","ELEMENT_SET_NO":"999","REV_AT_EPOCH":"1","BSTAR":"0.00000000000000","MEAN_MOTION_DOT":"0.00000012","MEAN_MOTION_DDOT":"0.0000000000000","SEMIMAJOR_AXIS":"7429.280","PERIOD":"106.213","APOAPSIS":"1058.671","PERIAPSIS":"1043.619","OBJECT_TYPE":"TBA","RCS_SIZE":null,"COUNTRY_CODE":null,"LAUNCH_DATE":null,"SITE":null,"DECAY_DATE":null,"FILE":"2684670","GP_ID":"146831080","TLE_LINE0":"0 TBA - TO BE ASSIGNED","TLE_LINE1":"1 85412U          20016.34702987  .00000012  00000-0  00000+0 0  9991","TLE_LINE2":"2 85412  88.9100  82.4227 0010130 287.1400 204.5700 13.55759361    14"},{"CCSDS_OMM_VERS":"2.0","COMMENT":"GENERATED VIA SPACE-TRACK.ORG API","CREATION_DATE":"2021-08-05T19:26:10","ORIGINATOR":"18 SPCS","OBJECT_NAME":"TBA - TO BE ASSIGNED","OBJECT_ID":"","CENTER_NAME":"EARTH","REF_FRAME":"TEME","TIME_SYSTEM":"UTC","MEAN_ELEMENT_THEORY":"SGP4","EPOCH":"2021-08-05T13:58:04.998720","MEAN_MOTION":"1.00432258","ECCENTRICITY":"0.00077000","INCLINATION":"0.0700","RA_OF_ASC_NODE":"270.0000","ARG_OF_PERICENTER":"231.7300","MEAN_ANOMALY":"310.0200","EPHEMERIS_TYPE":"0","CLASSIFICATION_TYPE":"U","NORAD_CAT_ID":"85411","ELEMENT_SET_NO":"999","REV_AT_EPOCH":"1","BSTAR":"0.00000000000000","MEAN_MOTION_DOT":"-0.00000267","MEAN_MOTION_DDOT":"0.0000000000000","SEMIMAJOR_AXIS":"42119.805","PERIOD":"1433.802","APOAPSIS":"35774.103","PERIAPSIS":"35709.238","OBJECT_TYPE":"TBA","RCS_SIZE":null,"COUNTRY_CODE":null,"LAUNCH_DATE":null,"SITE":null,"DECAY_DATE":null,"FILE":"3090168","GP_ID":"182214655","TLE_LINE0":"0 TBA - TO BE ASSIGNED","TLE_LINE1":"1 85411U          21217.58200230 -.00000267  00000-0  00000+0 0  9997","TLE_LINE2":"2 85411   0.0700 270.0000 0007700 231.7300 310.0200  1.00432258    19"},{"CCSDS_OMM_VERS":"2.0","COMMENT":"GENERATED VIA SPACE-TRACK.ORG API","CREATION_DATE":"2020-01-16T03:20:12","ORIGINATOR":"18 SPCS","OBJECT_NAME":"TBA - TO BE ASSIGNED","OBJECT_ID":null,"CENTER_NAME":"EARTH","REF_FRAME":"TEME","TIME_SYSTEM":"UTC","MEAN_ELEMENT_THEORY":"SGP4","EPOCH":"2020-01-16T03:01:59.999232","MEAN_MOTION":"13.14633027","ECCENTRICITY":"0.00097170","INCLINATION":"80.0053","RA_OF_ASC_NODE":"91.4245","ARG_OF_PERICENTER":"273.3820","MEAN_ANOMALY":"201.6190","EPHEMERIS_TYPE":"0","CLASSIFICATION_TYPE":"U","NORAD_CAT_ID":"85410","ELEMENT_SET_NO":"999","REV_AT_EPOCH":"1","BSTAR":"0.00000000000000","MEAN_MOTION_DOT":"0.00000006","MEAN_MOTION_DDOT":"0.0000000000000","SEMIMAJOR_AXIS":"7583.426","PERIOD":"109.536","APOAPSIS":"1212.660","PERIAPSIS":"1197.922","OBJECT_TYPE":"TBA","RCS_SIZE":null,"COUNTRY_CODE":null,"LAUNCH_DATE":null,"SITE":null,"DECAY_DATE":null,"FILE":"2684669","GP_ID":"146831079","TLE_LINE0":"0 TBA - TO BE ASSIGNED","TLE_LINE1":"1 85410U          20016.12638888  .00000006  00000-0  00000+0 0  9996","TLE_LINE2":"2 85410  80.0053  91.4245 0009717 273.3820 201.6190 13.14633027    10"},{"CCSDS_OMM_VERS":"2.0","COMMENT":"GENERATED VIA SPACE-TRACK.ORG API","CREATION_DATE":"2021-03-30T20:16:10","ORIGINATOR":"18 SPCS","OBJECT_NAME":"TBA - TO BE ASSIGNED","OBJECT_ID":"","CENTER_NAME":"EARTH","REF_FRAME":"TEME","TIME_SYSTEM":"UTC","MEAN_ELEMENT_THEORY":"SGP4","EPOCH":"2021-03-30T19:56:06.081216","MEAN_MOTION":"15.05630209","ECCENTRICITY":"0.00204100","INCLINATION":"97.5668","RA_OF_ASC_NODE":"353.5445","ARG_OF_PERICENTER":"217.2283","MEAN_ANOMALY":"193.5103","EPHEMERIS_TYPE":"0","CLASSIFICATION_TYPE":"U","NORAD_CAT_ID":"85409","ELEMENT_SET_NO":"999","REV_AT_EPOCH":"72","BSTAR":"0.00001831900000","MEAN_MOTION_DOT":"0.00000203","MEAN_MOTION_DDOT":"0.0000000000000","SEMIMAJOR_AXIS":"6927.709","PERIOD":"95.641","APOAPSIS":"563.713","PERIAPSIS":"535.434","OBJECT_TYPE":"TBA","RCS_SIZE":null,"COUNTRY_CODE":null,"LAUNCH_DATE":null,"SITE":null,"DECAY_DATE":null,"FILE":"3000841","GP_ID":"174504978","TLE_LINE0":"0 TBA - TO BE ASSIGNED","TLE_LINE1":"1 85409U          21089.83062594  .00000203  00000-0  18319-4 0  9994","TLE_LINE2":"2 85409  97.5668 353.5445 0020410 217.2283 193.5103 15.05630209   722"},{"CCSDS_OMM_VERS":"2.0","COMMENT":"GENERATED VIA SPACE-TRACK.ORG API","CREATION_DATE":"2021-04-19T16:46:12","ORIGINATOR":"18 SPCS","OBJECT_NAME":"TBA - TO BE ASSIGNED","OBJECT_ID":"","CENTER_NAME":"EARTH","REF_FRAME":"TEME","TIME_SYSTEM":"UTC","MEAN_ELEMENT_THEORY":"SGP4","EPOCH":"2021-04-17T02:42:08.521632","MEAN_MOTION":"1.72114876","ECCENTRICITY":"0.00288480","INCLINATION":"56.6096","RA_OF_ASC_NODE":"33.0647","ARG_OF_PERICENTER":"217.6311","MEAN_ANOMALY":"299.0210","EPHEMERIS_TYPE":"0","CLASSIFICATION_TYPE":"U","NORAD_CAT_ID":"85408","ELEMENT_SET_NO":"999","REV_AT_EPOCH":"5","BSTAR":"0.00000000000000","MEAN_MOTION_DOT":"-0.00000076","MEAN_MOTION_DDOT":"0.0000000000000","SEMIMAJOR_AXIS":"29411.888","PERIOD":"836.651","APOAPSIS":"23118.600","PERIAPSIS":"22948.906","OBJECT_TYPE":"TBA","RCS_SIZE":null,"COUNTRY_CODE":null,"LAUNCH_DATE":null,"SITE":null,"DECAY_DATE":null,"FILE":"3021149","GP_ID":"175745533","TLE_LINE0":"0 TBA - TO BE ASSIGNED","TLE_LINE1":"1 85408U          21107.11259863 -.00000076  00000-0  00000+0 0  9994","TLE_LINE2":"2 85408  56.6096  33.0647 0028848 217.6311 299.0210  1.72114876    58"}]